start=new Date('2023-04-20T00:00:00.000Z').valueOf();
sats=[{"FILE":"3890520","EPOCH":"2023-04-19T22:00:00.999936","ARG_OF_PERICENTER":"261.3788","COUNTRY_CODE":"US","REF_FRAME":"TEME","RA_OF_ASC_NODE":"138.0550","BSTAR":"-0.00039124000000","OBJECT_NAME":"STARLINK-6062","REV_AT_EPOCH":"130","MEAN_ELEMENT_THEORY":"SGP4","TIME_SYSTEM":"UTC","ECCENTRICITY":"0.00015540","PERIOD":"92.968","OBJECT_ID":"2023-046M","CLASSIFICATION_TYPE":"U","DECAY_DATE":null,"INCLINATION":"42.9989","RCS_SIZE":"LARGE","EPHEMERIS_TYPE":"0","PERIAPSIS":"418.843","SITE":"AFETR","MEAN_MOTION":"15.48915552","LAUNCH_DATE":"2023-03-29","APOAPSIS":"420.956","TLE_LINE2":"2 56104  42.9989 138.0550 0001554 261.3788 185.4443 15.48915552  1309","MEAN_MOTION_DOT":"-0.00021914","MEAN_MOTION_DDOT":"0.0000000000000","NORAD_CAT_ID":"56104","OBJECT_TYPE":"PAYLOAD","TLE_LINE1":"1 56104U 23046M   23109.91667824 -.00021914  00000-0 -39124-3 0  9990","GP_ID":"230398814","CENTER_NAME":"EARTH","SEMIMAJOR_AXIS":"6798.034","MEAN_ANOMALY":"185.4443","ELEMENT_SET_NO":"999"},{"ELEMENT_SET_NO":"999","MEAN_ANOMALY":"187.3689","SEMIMAJOR_AXIS":"6798.059","CENTER_NAME":"EARTH","GP_ID":"230398718","TLE_LINE1":"1 56105U 23046N   23109.91667824 -.00010546  00000-0 -18493-3 0  9996","OBJECT_TYPE":"PAYLOAD","NORAD_CAT_ID":"56105","MEAN_MOTION_DDOT":"0.0000000000000","TLE_LINE2":"2 56105  42.9992 138.0398 0001523 265.8447 187.3689 15.48907215  1301","MEAN_MOTION_DOT":"-0.00010546","APOAPSIS":"420.959","LAUNCH_DATE":"2023-03-29","MEAN_MOTION":"15.48907215","SITE":"AFETR","PERIAPSIS":"418.888","EPHEMERIS_TYPE":"0","RCS_SIZE":"LARGE","DECAY_DATE":null,"INCLINATION":"42.9992","CLASSIFICATION_TYPE":"U","OBJECT_ID":"2023-046N","PERIOD":"92.969","TIME_SYSTEM":"UTC","ECCENTRICITY":"0.00015230","MEAN_ELEMENT_THEORY":"SGP4","REV_AT_EPOCH":"130","OBJECT_NAME":"STARLINK-6066","BSTAR":"-0.00018493000000","RA_OF_ASC_NODE":"138.0398","REF_FRAME":"TEME","ARG_OF_PERICENTER":"265.8447","COUNTRY_CODE":"US","EPOCH":"2023-04-19T22:00:00.999936","FILE":"3890520"},{"INCLINATION":"42.9998","DECAY_DATE":null,"PERIOD":"92.969","OBJECT_ID":"2023-046P","CLASSIFICATION_TYPE":"U","MEAN_ELEMENT_THEORY":"SGP4","TIME_SYSTEM":"UTC","ECCENTRICITY":"0.00014600","REV_AT_EPOCH":"130","OBJECT_NAME":"STARLINK-6078","BSTAR":"-0.00019606000000","RA_OF_ASC_NODE":"138.0468","REF_FRAME":"TEME","ARG_OF_PERICENTER":"263.4698","COUNTRY_CODE":"US","FILE":"3890520","EPOCH":"2023-04-19T22:00:00.999936","MEAN_ANOMALY":"187.1894","ELEMENT_SET_NO":"999","SEMIMAJOR_AXIS":"6798.058","CENTER_NAME":"EARTH","OBJECT_TYPE":"PAYLOAD","TLE_LINE1":"1 56106U 23046P   23109.91667824 -.00011160  00000-0 -19606-3 0  9997","GP_ID":"230398782","NORAD_CAT_ID":"56106","MEAN_MOTION_DDOT":"0.0000000000000","MEAN_MOTION_DOT":"-0.00011160","TLE_LINE2":"2 56106  42.9998 138.0468 0001460 263.4698 187.1894 15.48907592  1302","APOAPSIS":"420.915","LAUNCH_DATE":"2023-03-29","MEAN_MOTION":"15.48907592","SITE":"AFETR","RCS_SIZE":"LARGE","EPHEMERIS_TYPE":"0","PERIAPSIS":"418.930"},{"NORAD_CAT_ID":"56107","GP_ID":"230398878","TLE_LINE1":"1 56107U 23046Q   23109.91667824 -.00007975  00000-0 -13833-3 0  9993","OBJECT_TYPE":"PAYLOAD","CENTER_NAME":"EARTH","ELEMENT_SET_NO":"999","MEAN_ANOMALY":"193.2524","SEMIMAJOR_AXIS":"6798.063","PERIAPSIS":"418.833","EPHEMERIS_TYPE":"0","RCS_SIZE":"LARGE","MEAN_MOTION":"15.48905823","SITE":"AFETR","APOAPSIS":"421.022","LAUNCH_DATE":"2023-03-29","MEAN_MOTION_DDOT":"0.0000000000000","MEAN_MOTION_DOT":"-0.00007975","TLE_LINE2":"2 56107  42.9996 138.0344 0001610 262.5162 193.2524 15.48905823  1300","OBJECT_NAME":"STARLINK-6030","BSTAR":"-0.00013833000000","TIME_SYSTEM":"UTC","ECCENTRICITY":"0.00016100","MEAN_ELEMENT_THEORY":"SGP4","REV_AT_EPOCH":"130","INCLINATION":"42.9996","DECAY_DATE":null,"CLASSIFICATION_TYPE":"U","OBJECT_ID":"2023-046Q","PERIOD":"92.969","EPOCH":"2023-04-19T22:00:00.999936","FILE":"3890520","REF_FRAME":"TEME","ARG_OF_PERICENTER":"262.5162","COUNTRY_CODE":"US","RA_OF_ASC_NODE":"138.0344"},{"REF_FRAME":"TEME","ARG_OF_PERICENTER":"262.3023","COUNTRY_CODE":"US","RA_OF_ASC_NODE":"138.0478","FILE":"3890520","EPOCH":"2023-04-19T22:00:00.999936","MEAN_ELEMENT_THEORY":"SGP4","TIME_SYSTEM":"UTC","ECCENTRICITY":"0.00015160","REV_AT_EPOCH":"130","DECAY_DATE":null,"INCLINATION":"42.9984","PERIOD":"92.969","CLASSIFICATION_TYPE":"U","OBJECT_ID":"2023-046R","OBJECT_NAME":"STARLINK-6081","BSTAR":"-0.00015495000000","APOAPSIS":"420.956","LAUNCH_DATE":"2023-03-29","MEAN_MOTION_DDOT":"0.0000000000000","TLE_LINE2":"2 56108  42.9984 138.0478 0001516 262.3023 187.0803 15.48906622  1304","MEAN_MOTION_DOT":"-0.00008892","RCS_SIZE":"LARGE","EPHEMERIS_TYPE":"0","PERIAPSIS":"418.895","MEAN_MOTION":"15.48906622","SITE":"AFETR","CENTER_NAME":"EARTH","MEAN_ANOMALY":"187.0803","ELEMENT_SET_NO":"999","SEMIMAJOR_AXIS":"6798.060","NORAD_CAT_ID":"56108","OBJECT_TYPE":"PAYLOAD","TLE_LINE1":"1 56108U 23046R   23109.91667824 -.00008892  00000-0 -15495-3 0  9999","GP_ID":"230398687"},{"MEAN_ANOMALY":"188.6318","ELEMENT_SET_NO":"999","SEMIMAJOR_AXIS":"6798.060","CENTER_NAME":"EARTH","OBJECT_TYPE":"PAYLOAD","TLE_LINE1":"1 56109U 23046S   23109.91667824 -.00009363  00000-0 -16348-3 0  9992","GP_ID":"230398847","NORAD_CAT_ID":"56109","MEAN_MOTION_DDOT":"0.0000000000000","MEAN_MOTION_DOT":"-0.00009363","TLE_LINE2":"2 56109  42.9999 138.0382 0001639 265.8593 188.6318 15.48906706  1302","APOAPSIS":"421.039","LAUNCH_DATE":"2023-03-29","MEAN_MOTION":"15.48906706","SITE":"AFETR","EPHEMERIS_TYPE":"0","RCS_SIZE":"LARGE","PERIAPSIS":"418.811","INCLINATION":"42.9999","DECAY_DATE":null,"PERIOD":"92.969","OBJECT_ID":"2023-046S","CLASSIFICATION_TYPE":"U","MEAN_ELEMENT_THEORY":"SGP4","ECCENTRICITY":"0.00016390","TIME_SYSTEM":"UTC","REV_AT_EPOCH":"130","OBJECT_NAME":"STARLINK-6083","BSTAR":"-0.00016348000000","RA_OF_ASC_NODE":"138.0382","REF_FRAME":"TEME","ARG_OF_PERICENTER":"265.8593","COUNTRY_CODE":"US","FILE":"3890520","EPOCH":"2023-04-19T22:00:00.999936"},{"OBJECT_TYPE":"PAYLOAD","TLE_LINE1":"1 56110U 23046T   23109.91667824 -.00010386  00000-0 -18203-3 0  9993","GP_ID":"230398911","NORAD_CAT_ID":"56110","MEAN_ANOMALY":"190.7892","ELEMENT_SET_NO":"999","SEMIMAJOR_AXIS":"6798.063","CENTER_NAME":"EARTH","MEAN_MOTION":"15.48905835","SITE":"AFETR","RCS_SIZE":"LARGE","EPHEMERIS_TYPE":"0","PERIAPSIS":"418.843","MEAN_MOTION_DDOT":"0.0000000000000","TLE_LINE2":"2 56110  42.9990 138.0426 0001595 261.1479 190.7892 15.48905835  1300","MEAN_MOTION_DOT":"-0.00010386","APOAPSIS":"421.012","LAUNCH_DATE":"2023-03-29","OBJECT_NAME":"STARLINK-6082","BSTAR":"-0.00018203000000","INCLINATION":"42.9990","DECAY_DATE":null,"PERIOD":"92.969","OBJECT_ID":"2023-046T","CLASSIFICATION_TYPE":"U","MEAN_ELEMENT_THEORY":"SGP4","TIME_SYSTEM":"UTC","ECCENTRICITY":"0.00015950","REV_AT_EPOCH":"130","FILE":"3890520","EPOCH":"2023-04-19T22:00:00.999936","RA_OF_ASC_NODE":"138.0426","REF_FRAME":"TEME","COUNTRY_CODE":"US","ARG_OF_PERICENTER":"261.1479"},{"NORAD_CAT_ID":"56111","OBJECT_TYPE":"PAYLOAD","GP_ID":"230398751","TLE_LINE1":"1 56111U 23046U   23109.91667824 -.00010092  00000-0 -17669-3 0  9993","CENTER_NAME":"EARTH","MEAN_ANOMALY":"195.0681","ELEMENT_SET_NO":"999","SEMIMAJOR_AXIS":"6798.059","RCS_SIZE":"LARGE","EPHEMERIS_TYPE":"0","PERIAPSIS":"418.993","MEAN_MOTION":"15.48907010","SITE":"AFETR","APOAPSIS":"420.856","LAUNCH_DATE":"2023-03-29","MEAN_MOTION_DDOT":"0.0000000000000","TLE_LINE2":"2 56111  42.9996 138.0219 0001370 265.8087 195.0681 15.48907010  1305","MEAN_MOTION_DOT":"-0.00010092","OBJECT_NAME":"STARLINK-6084","BSTAR":"-0.00017669000000","MEAN_ELEMENT_THEORY":"SGP4","TIME_SYSTEM":"UTC","ECCENTRICITY":"0.00013700","REV_AT_EPOCH":"130","DECAY_DATE":null,"INCLINATION":"42.9996","PERIOD":"92.969","CLASSIFICATION_TYPE":"U","OBJECT_ID":"2023-046U","FILE":"3890520","EPOCH":"2023-04-19T22:00:00.999936","REF_FRAME":"TEME","ARG_OF_PERICENTER":"265.8087","COUNTRY_CODE":"US","RA_OF_ASC_NODE":"138.0219"},{"RA_OF_ASC_NODE":"138.0275","REF_FRAME":"TEME","COUNTRY_CODE":"US","ARG_OF_PERICENTER":"255.4058","FILE":"3890520","EPOCH":"2023-04-19T22:00:00.999936","DECAY_DATE":null,"INCLINATION":"42.9991","PERIOD":"92.969","CLASSIFICATION_TYPE":"U","OBJECT_ID":"2023-046V","MEAN_ELEMENT_THEORY":"SGP4","TIME_SYSTEM":"UTC","ECCENTRICITY":"0.00015340","REV_AT_EPOCH":"130","OBJECT_NAME":"STARLINK-6080","BSTAR":"-0.00015253000000","MEAN_MOTION_DDOT":"0.0000000000000","MEAN_MOTION_DOT":"-0.00008758","TLE_LINE2":"2 56112  42.9991 138.0275 0001534 255.4058 202.9174 15.48904907  1305","APOAPSIS":"420.973","LAUNCH_DATE":"2023-03-29","MEAN_MOTION":"15.48904907","SITE":"AFETR","RCS_SIZE":"LARGE","EPHEMERIS_TYPE":"0","PERIAPSIS":"418.888","MEAN_ANOMALY":"202.9174","ELEMENT_SET_NO":"999","SEMIMAJOR_AXIS":"6798.065","CENTER_NAME":"EARTH","OBJECT_TYPE":"PAYLOAD","GP_ID":"230398815","TLE_LINE1":"1 56112U 23046V   23109.91667824 -.00008758  00000-0 -15253-3 0  9997","NORAD_CAT_ID":"56112"},{"REV_AT_EPOCH":"130","MEAN_ELEMENT_THEORY":"SGP4","TIME_SYSTEM":"UTC","ECCENTRICITY":"0.00015590","PERIOD":"92.969","CLASSIFICATION_TYPE":"U","OBJECT_ID":"2023-046W","DECAY_DATE":null,"INCLINATION":"43.0000","BSTAR":"-0.00010130000000","OBJECT_NAME":"STARLINK-6113","ARG_OF_PERICENTER":"263.9619","COUNTRY_CODE":"US","REF_FRAME":"TEME","RA_OF_ASC_NODE":"138.0196","FILE":"3890520","EPOCH":"2023-04-19T22:00:00.999936","CENTER_NAME":"EARTH","SEMIMAJOR_AXIS":"6798.067","MEAN_ANOMALY":"198.1945","ELEMENT_SET_NO":"999","NORAD_CAT_ID":"56113","OBJECT_TYPE":"PAYLOAD","TLE_LINE1":"1 56113U 23046W   23109.91667824 -.00005931  00000-0 -10130-3 0  9997","GP_ID":"230398719","LAUNCH_DATE":"2023-03-29","APOAPSIS":"420.992","TLE_LINE2":"2 56113  43.0000 138.0196 0001559 263.9619 198.1945 15.48904207  1300","MEAN_MOTION_DOT":"-0.00005931","MEAN_MOTION_DDOT":"0.0000000000000","EPHEMERIS_TYPE":"0","RCS_SIZE":"LARGE","PERIAPSIS":"418.873","SITE":"AFETR","MEAN_MOTION":"15.48904207"}];
